CCSDS_OMM_VERS = 2.0
CREATION_DATE  = 
ORIGINATOR     = 

OBJECT_NAME    = ALOS-2
OBJECT_ID      = 2014-029A
CENTER_NAME    = EARTH
REF_FRAME      = TEME
TIME_SYSTEM    = UTC
MEAN_ELEMENT_THEORY = SGP/SGP4

EPOCH          = 2026-03-11T13:04:35.998176
MEAN_MOTION    = 14.79513569
ECCENTRICITY   = .0001406
INCLINATION    = 97.9185
RA_OF_ASC_NODE = 169.1145
ARG_OF_PERICENTER = 98.2042
MEAN_ANOMALY   = 261.9329

EPHEMERIS_TYPE = 0
CLASSIFICATION_TYPE = U
NORAD_CAT_ID   = 39766
ELEMENT_SET_NO = 999
REV_AT_EPOCH   = 63714
BSTAR          = .36193E-3
MEAN_MOTION_DOT = .2655E-4
MEAN_MOTION_DDOT = 0

CCSDS_OMM_VERS = 2.0
CREATION_DATE  = 
ORIGINATOR     = 

OBJECT_NAME    = YAOGAN-29
OBJECT_ID      = 2015-069A
CENTER_NAME    = EARTH
REF_FRAME      = TEME
TIME_SYSTEM    = UTC
MEAN_ELEMENT_THEORY = SGP/SGP4

EPOCH          = 2026-03-11T13:10:12.281664
MEAN_MOTION    = 14.82997296
ECCENTRICITY   = .0001782
INCLINATION    = 98.0144
RA_OF_ASC_NODE = 98.9833
ARG_OF_PERICENTER = 32.1376
MEAN_ANOMALY   = 327.9946

EPHEMERIS_TYPE = 0
CLASSIFICATION_TYPE = U
NORAD_CAT_ID   = 41038
ELEMENT_SET_NO = 999
REV_AT_EPOCH   = 55615
BSTAR          = .61519E-4
MEAN_MOTION_DOT = .446E-5
MEAN_MOTION_DDOT = 0

CCSDS_OMM_VERS = 2.0
CREATION_DATE  = 
ORIGINATOR     = 

OBJECT_NAME    = ASTRO-H (HITOMI)
OBJECT_ID      = 2016-012A
CENTER_NAME    = EARTH
REF_FRAME      = TEME
TIME_SYSTEM    = UTC
MEAN_ELEMENT_THEORY = SGP/SGP4

EPOCH          = 2026-03-11T02:07:13.989504
MEAN_MOTION    = 15.10017409
ECCENTRICITY   = .00097998
INCLINATION    = 31.0007
RA_OF_ASC_NODE = 347.5222
ARG_OF_PERICENTER = 345.1430
MEAN_ANOMALY   = 14.8919

EPHEMERIS_TYPE = 0
CLASSIFICATION_TYPE = U
NORAD_CAT_ID   = 41337
ELEMENT_SET_NO = 999
REV_AT_EPOCH   = 55244
BSTAR          = .22451389E-3
MEAN_MOTION_DOT = .3838E-4
MEAN_MOTION_DDOT = 0

CCSDS_OMM_VERS = 2.0
CREATION_DATE  = 
ORIGINATOR     = 

OBJECT_NAME    = HXMT (HUIYAN)
OBJECT_ID      = 2017-034A
CENTER_NAME    = EARTH
REF_FRAME      = TEME
TIME_SYSTEM    = UTC
MEAN_ELEMENT_THEORY = SGP/SGP4

EPOCH          = 2026-03-11T06:59:49.334208
MEAN_MOTION    = 15.17491742
ECCENTRICITY   = .0033089
INCLINATION    = 43.0159
RA_OF_ASC_NODE = 7.7675
ARG_OF_PERICENTER = 245.7462
MEAN_ANOMALY   = 113.9928

EPHEMERIS_TYPE = 0
CLASSIFICATION_TYPE = U
NORAD_CAT_ID   = 42758
ELEMENT_SET_NO = 999
REV_AT_EPOCH   = 48278
BSTAR          = .39381E-3
MEAN_MOTION_DOT = .7916E-4
MEAN_MOTION_DDOT = 0

CCSDS_OMM_VERS = 2.0
CREATION_DATE  = 
ORIGINATOR     = 

OBJECT_NAME    = SAOCOM 1A
OBJECT_ID      = 2018-076A
CENTER_NAME    = EARTH
REF_FRAME      = TEME
TIME_SYSTEM    = UTC
MEAN_ELEMENT_THEORY = SGP/SGP4

EPOCH          = 2026-03-11T12:22:41.003040
MEAN_MOTION    = 14.82141946
ECCENTRICITY   = .0001386
INCLINATION    = 97.8898
RA_OF_ASC_NODE = 258.6622
ARG_OF_PERICENTER = 86.2448
MEAN_ANOMALY   = 273.8923

EPHEMERIS_TYPE = 0
CLASSIFICATION_TYPE = U
NORAD_CAT_ID   = 43641
ELEMENT_SET_NO = 999
REV_AT_EPOCH   = 40163
BSTAR          = .85855E-4
MEAN_MOTION_DOT = .631E-5
MEAN_MOTION_DDOT = 0

CCSDS_OMM_VERS = 2.0
CREATION_DATE  = 
ORIGINATOR     = 

OBJECT_NAME    = H-2A R/B
OBJECT_ID      = 2018-084L
CENTER_NAME    = EARTH
REF_FRAME      = TEME
TIME_SYSTEM    = UTC
MEAN_ELEMENT_THEORY = SGP/SGP4

EPOCH          = 2026-03-11T11:39:15.948864
MEAN_MOTION    = 15.41434584
ECCENTRICITY   = .0025254
INCLINATION    = 98.8732
RA_OF_ASC_NODE = 288.2574
ARG_OF_PERICENTER = 19.1896
MEAN_ANOMALY   = 341.0291

EPHEMERIS_TYPE = 0
CLASSIFICATION_TYPE = U
NORAD_CAT_ID   = 43682
ELEMENT_SET_NO = 999
REV_AT_EPOCH   = 40605
BSTAR          = .54421E-3
MEAN_MOTION_DOT = .22954E-3
MEAN_MOTION_DDOT = 0

CCSDS_OMM_VERS = 2.0
CREATION_DATE  = 
ORIGINATOR     = 

OBJECT_NAME    = SAOCOM 1B
OBJECT_ID      = 2020-059A
CENTER_NAME    = EARTH
REF_FRAME      = TEME
TIME_SYSTEM    = UTC
MEAN_ELEMENT_THEORY = SGP/SGP4

EPOCH          = 2026-03-11T11:30:28.302336
MEAN_MOTION    = 14.82150835
ECCENTRICITY   = .0001373
INCLINATION    = 97.8897
RA_OF_ASC_NODE = 257.7239
ARG_OF_PERICENTER = 88.7964
MEAN_ANOMALY   = 271.3407

EPHEMERIS_TYPE = 0
CLASSIFICATION_TYPE = U
NORAD_CAT_ID   = 46265
ELEMENT_SET_NO = 999
REV_AT_EPOCH   = 29901
BSTAR          = .12091E-3
MEAN_MOTION_DOT = .91E-5
MEAN_MOTION_DDOT = 0

CCSDS_OMM_VERS = 2.0
CREATION_DATE  = 
ORIGINATOR     = 

OBJECT_NAME    = CSS (TIANHE)
OBJECT_ID      = 2021-035A
CENTER_NAME    = EARTH
REF_FRAME      = TEME
TIME_SYSTEM    = UTC
MEAN_ELEMENT_THEORY = SGP/SGP4

EPOCH          = 2026-03-11T12:10:29.974368
MEAN_MOTION    = 15.60767637
ECCENTRICITY   = .0006867
INCLINATION    = 41.4664
RA_OF_ASC_NODE = 197.1019
ARG_OF_PERICENTER = 283.1320
MEAN_ANOMALY   = 76.8752

EPHEMERIS_TYPE = 0
CLASSIFICATION_TYPE = U
NORAD_CAT_ID   = 48274
ELEMENT_SET_NO = 999
REV_AT_EPOCH   = 27789
BSTAR          = .34347E-3
MEAN_MOTION_DOT = .2922E-3
MEAN_MOTION_DDOT = 0

CCSDS_OMM_VERS = 2.0
CREATION_DATE  = 
ORIGINATOR     = 

OBJECT_NAME    = COSMOS 2550
OBJECT_ID      = 2021-056A
CENTER_NAME    = EARTH
REF_FRAME      = TEME
TIME_SYSTEM    = UTC
MEAN_ELEMENT_THEORY = SGP/SGP4

EPOCH          = 2026-03-11T06:40:13.421568
MEAN_MOTION    = 15.33831111
ECCENTRICITY   = .0008406
INCLINATION    = 67.1458
RA_OF_ASC_NODE = 36.1273
ARG_OF_PERICENTER = 269.2052
MEAN_ANOMALY   = 90.8140

EPHEMERIS_TYPE = 0
CLASSIFICATION_TYPE = U
NORAD_CAT_ID   = 48865
ELEMENT_SET_NO = 999
REV_AT_EPOCH   = 26370
BSTAR          = .17835E-6
MEAN_MOTION_DOT = -.186E-5
MEAN_MOTION_DDOT = 0

CCSDS_OMM_VERS = 2.0
CREATION_DATE  = 
ORIGINATOR     = 

OBJECT_NAME    = CZ-2C R/B
OBJECT_ID      = 2022-058K
CENTER_NAME    = EARTH
REF_FRAME      = TEME
TIME_SYSTEM    = UTC
MEAN_ELEMENT_THEORY = SGP/SGP4

EPOCH          = 2026-03-11T01:19:38.364960
MEAN_MOTION    = 15.54346249
ECCENTRICITY   = .00421039
INCLINATION    = 50.1895
RA_OF_ASC_NODE = 311.2644
ARG_OF_PERICENTER = 206.6464
MEAN_ANOMALY   = 153.2343

EPHEMERIS_TYPE = 0
CLASSIFICATION_TYPE = U
NORAD_CAT_ID   = 52794
ELEMENT_SET_NO = 999
REV_AT_EPOCH   = 21034
BSTAR          = .5831323E-3
MEAN_MOTION_DOT = .40205E-3
MEAN_MOTION_DDOT = 0

CCSDS_OMM_VERS = 2.0
CREATION_DATE  = 
ORIGINATOR     = 

OBJECT_NAME    = CZ-2C R/B
OBJECT_ID      = 2022-132E
CENTER_NAME    = EARTH
REF_FRAME      = TEME
TIME_SYSTEM    = UTC
MEAN_ELEMENT_THEORY = SGP/SGP4

EPOCH          = 2026-03-11T11:39:37.507392
MEAN_MOTION    = 15.62022871
ECCENTRICITY   = .0020524
INCLINATION    = 97.2967
RA_OF_ASC_NODE = 73.8574
ARG_OF_PERICENTER = 85.5813
MEAN_ANOMALY   = 274.7789

EPHEMERIS_TYPE = 0
CLASSIFICATION_TYPE = U
NORAD_CAT_ID   = 54039
ELEMENT_SET_NO = 999
REV_AT_EPOCH   = 19065
BSTAR          = .57218E-3
MEAN_MOTION_DOT = .50566E-3
MEAN_MOTION_DDOT = 0

CCSDS_OMM_VERS = 2.0
CREATION_DATE  = 
ORIGINATOR     = 

OBJECT_NAME    = GSLV R/B
OBJECT_ID      = 2022-138AN
CENTER_NAME    = EARTH
REF_FRAME      = TEME
TIME_SYSTEM    = UTC
MEAN_ELEMENT_THEORY = SGP/SGP4

EPOCH          = 2026-03-11T07:48:30.411936
MEAN_MOTION    = 14.96788193
ECCENTRICITY   = .002317
INCLINATION    = 87.3872
RA_OF_ASC_NODE = 165.8145
ARG_OF_PERICENTER = 141.0963
MEAN_ANOMALY   = 219.1941

EPHEMERIS_TYPE = 0
CLASSIFICATION_TYPE = U
NORAD_CAT_ID   = 54149
ELEMENT_SET_NO = 999
REV_AT_EPOCH   = 18417
BSTAR          = .34832E-3
MEAN_MOTION_DOT = .4034E-4
MEAN_MOTION_DDOT = 0

