ALOS-2                  
1 39766U 14029A   26070.54486109  .00002655  00000+0  36193-3 0  9991
2 39766  97.9185 169.1145 0001406  98.2042 261.9329 14.79513569637148
YAOGAN-29               
1 41038U 15069A   26070.54875326  .00000446  00000+0  61519-4 0  9991
2 41038  98.0144  98.9833 0001782  32.1376 327.9946 14.82997296556153
ASTRO-H (HITOMI)        
1 41337U 16012A   26070.08835636  .00003838  00000+0  22451-3 0  9990
2 41337  31.0007 347.5222 0009799 345.1430  14.8919 15.10017409552440
HXMT (HUIYAN)           
1 42758U 17034A   26070.29154322  .00007916  00000+0  39381-3 0  9993
2 42758  43.0159   7.7675 0033089 245.7462 113.9928 15.17491742482788
SAOCOM 1A               
1 43641U 18076A   26070.51575235  .00000631  00000+0  85855-4 0  9992
2 43641  97.8898 258.6622 0001386  86.2448 273.8923 14.82141946401638
H-2A R/B                
1 43682U 18084L   26070.48560126  .00022954  00000+0  54421-3 0  9991
2 43682  98.8732 288.2574 0025254  19.1896 341.0291 15.41434584406054
SAOCOM 1B               
1 46265U 20059A   26070.47949424  .00000910  00000+0  12091-3 0  9992
2 46265  97.8897 257.7239 0001373  88.7964 271.3407 14.82150835299016
CSS (TIANHE)            
1 48274U 21035A   26070.50729137  .00029220  00000+0  34347-3 0  9993
2 48274  41.4664 197.1019 0006867 283.1320  76.8752 15.60767637277892
COSMOS 2550             
1 48865U 21056A   26070.27793312 -.00000186  00000+0  17835-6 0  9999
2 48865  67.1458  36.1273 0008406 269.2052  90.8140 15.33831111263707
CZ-2C R/B               
1 52794U 22058K   26070.05530515  .00040205  00000+0  58313-3 0  9996
2 52794  50.1895 311.2644 0042103 206.6464 153.2343 15.54346249210340
CZ-2C R/B               
1 54039U 22132E   26070.48585078  .00050566  00000+0  57218-3 0  9998
2 54039  97.2967  73.8574 0020524  85.5813 274.7789 15.62022871190659
GSLV R/B                
1 54149U 22138AN  26070.32535199  .00004034  00000+0  34832-3 0  9994
2 54149  87.3872 165.8145 0023170 141.0963 219.1941 14.96788193184171
